ONEWEB-0589             
1 54655U 22166P   25259.02424467  .00000004  00000+0 -22767-4 0  9996
2 54655  87.9205 298.7040 0002616  81.5283 278.6148 13.21823021135323
ONEWEB-0590             
1 54656U 22166Q   25259.04777229  .00000085  00000+0  17436-3 0  9990
2 54656  87.9198 298.6755 0002344 102.0654 258.0743 13.21826582135313
ONEWEB-0591             
1 54657U 22166R   25259.06051155  .00000127  00000+0  27577-3 0  9990
2 54657  87.9205 298.6968 0002058  92.8130 267.3239 13.21823940135347
ONEWEB-0592             
1 54658U 22166S   25259.06366905  .00000060  00000+0  11309-3 0  9995
2 54658  87.9208 298.6511 0002085  93.8540 266.2833 13.21823834135228
ONEWEB-0593             
1 54659U 22166T   25259.08731234  .00000042  00000+0  69086-4 0  9995
2 54659  87.9202 298.6816 0002045  90.3992 269.7376 13.21824160135335
ONEWEB-0594             
1 54660U 22166U   25259.03055382 -.00000005  00000+0 -44815-4 0  9999
2 54660  87.9204 298.7094 0001877  93.7414 266.3935 13.21823829135342
ONEWEB-0595             
1 54661U 22166V   25259.08415491  .00000034  00000+0  50466-4 0  9995
2 54661  87.9203 298.6739 0001917 100.1562 259.9788 13.21822972135329
ONEWEB-0596             
1 54662U 22166W   25259.05735445  .00000117  00000+0  25205-3 0  9991
2 54662  87.9205 298.6945 0002016  95.8746 264.2618 13.21823456135325
ONEWEB-0597             
1 54663U 22166X   25259.03844118  .00000038  00000+0  60418-4 0  9996
2 54663  87.9204 298.7021 0001998  90.8819 269.2544 13.21823907135329
ONEWEB-0600             
1 54664U 22166Y   25259.02108793 -.00000050  00000+0 -15263-3 0  9991
2 54664  87.9196 298.6983 0001934  89.6950 270.4405 13.21823514135298
ONEWEB-0601             
1 54665U 22166Z   25259.08887409 -.00000012  00000+0 -60068-4 0  9998
2 54665  87.9202 298.7018 0002164  87.8846 272.2536 13.21822732135495
ONEWEB-0602             
1 54666U 22166AA  25259.05342425  .00000020  00000+0  16500-4 0  9999
2 54666  87.9205 298.7109 0001745  85.1806 274.9527 13.21823568135331
ONEWEB-0603             
1 54667U 22166AB  25259.05895332  .00000120  00000+0  25876-3 0  9996
2 54667  87.9205 298.6440 0002004  91.2959 268.8404 13.21828101135261
ONEWEB-0604             
1 54668U 22166AC  25259.04632425  .00000001  00000+0 -28280-4 0  9990
2 54668  87.9204 298.6714 0001966  88.1795 271.9564 13.21823968135228
ONEWEB-0605             
1 54669U 22166AD  25259.11573784  .00000065  00000+0  12656-3 0  9999
2 54669  87.9203 298.6875 0002579  89.3712 270.7717 13.21828872135304
ONEWEB-0606             
1 54670U 22166AE  25259.06210416  .00000101  00000+0  21202-3 0  9993
2 54670  87.9204 298.7089 0001890 100.1648 259.9700 13.21824782135352
ONEWEB-0607             
1 54671U 22166AF  25259.02898389  .00000002  00000+0 -26733-4 0  9997
2 54671  87.9201 298.6796 0001989  90.1120 270.0242 13.21822825135324
ONEWEB-0608             
1 54672U 22166AG  25259.03528226 -.00000011  00000+0 -58711-4 0  9991
2 54672  87.9197 298.6621 0002339  84.2894 275.8507 13.21824432135332
ONEWEB-0610             
1 54673U 22166AH  25259.09206315  .00000048  00000+0  83809-4 0  9994
2 54673  87.9203 298.6879 0002402  83.0590 277.0817 13.21825253135247
ONEWEB-0611             
1 54674U 22166AJ  25259.08572273 -.00000027  00000+0 -97391-4 0  9993
2 54674  87.9202 298.6851 0001774  98.6781 261.4554 13.21823289135233
ONEWEB-0612             
1 54675U 22166AK  25259.02267311 -.00000043  00000+0 -13595-3 0  9993
2 54675  87.9203 298.6756 0002051  90.1901 269.9468 13.21823538135211
ONEWEB-0615             
1 54676U 22166AL  25259.07942565  .00000058  00000+0  10908-3 0  9999
2 54676  87.9203 298.6908 0001928  94.1249 266.0105 13.21823673135230
ONEWEB-0655             
1 54677U 22166AM  25259.12833642  .00000032  00000+0  46692-4 0  9993
2 54677  87.9202 298.6861 0001813  84.9184 275.2157 13.21827050135238
ONEWEB-0659             
1 54678U 22166AN  25259.06997185  .00000111  00000+0  23782-3 0  9992
2 54678  87.9203 298.6982 0002018  98.7415 261.3948 13.21823229135319
ONEWEB-0685             
1 54679U 22166AP  25259.07155967  .00000059  00000+0  11124-3 0  9996
2 54679  87.9205 298.6939 0002146  88.8360 271.3020 13.21827645135201
ONEWEB-0712             
1 54680U 22166AQ  25259.09096613 -.00000037  00000+0 -13046-3 0  9995
2 54680  87.8990 283.3926 0001518  76.6718 283.4583 13.16596477135998
ONEWEB-0714             
1 54681U 22166AR  25259.07784458  .00000029  00000+0  39298-4 0  9992
2 54681  87.9205 298.6862 0001939  88.6326 271.5030 13.21822700135321
ONEWEB-0532             
1 55140U 23004A   25258.97970228  .00000162  00000+0  38328-3 0  9995
2 55140  87.9053  60.3981 0002164  95.3867 264.7511 13.17651561131475
ONEWEB-0533             
1 55141U 23004B   25259.15612263  .00000341  00000+0  91230-3 0  9999
2 55141  87.8905  45.1054 0001698  88.7412 271.3911 13.12444100132110
ONEWEB-0541             
1 55142U 23004C   25259.20058638 -.00000290  00000+0 -85365-3 0  9993
2 55142  87.8782  75.6300 0001759  95.1918 264.9410 13.11416219130037
ONEWEB-0543             
1 55143U 23004D   25259.09790714  .00000282  00000+0  68342-3 0  9994
2 55143  87.9235  29.9368 0002573  85.7510 274.3916 13.18661884133571
ONEWEB-0544             
1 55144U 23004E   25259.09128292 -.00000167  00000+0 -45669-3 0  9992
2 55144  87.9177  29.9276 0001553 101.2336 258.8971 13.18685129133578
ONEWEB-0560             
1 55145U 23004F   25259.08468822  .00000010  00000+0 -78727-5 0  9997
2 55145  87.9185  29.9079 0001524 103.9718 256.1584 13.18687085133585
ONEWEB-0565             
1 55146U 23004G   25259.07810135  .00000146  00000+0  33816-3 0  9992
2 55146  87.9179  29.9630 0001912 114.5648 245.5684 13.18685946133579
ONEWEB-0567             
1 55147U 23004H   25259.29913363  .00000071  00000+0  14626-3 0  9999
2 55147  87.9185  29.8794 0001680 111.9562 248.1749 13.18686266133606
ONEWEB-0569             
1 55148U 23004J   25259.07349448  .00000272  00000+0  71019-3 0  9995
2 55148  87.9040  14.6589 0001348 134.0976 226.0264 13.13471087134197
ONEWEB-0570             
1 55149U 23004K   25259.13747645 -.00000021  00000+0 -86380-4 0  9996
2 55149  87.9181  29.9122 0002276 105.3310 254.8074 13.18687202133572
ONEWEB-0571             
1 55150U 23004L   25259.13087786 -.00000062  00000+0 -18969-3 0  9993
2 55150  87.9178  29.9182 0002026 136.9112 223.2179 13.18687333133581
ONEWEB-0572             
1 55151U 23004M   25259.16196665 -.00000029  00000+0 -10672-3 0  9990
2 55151  87.9053  60.3711 0001775  99.6501 260.4831 13.17649529131397
ONEWEB-0573             
1 55152U 23004N   25258.89667563 -.00000005  00000+0 -45265-4 0  9991
2 55152  87.9173  29.9712 0002204 120.7824 239.3525 13.18686961133541
ONEWEB-0588             
1 55153U 23004P   25259.11768421  .00000074  00000+0  15520-3 0  9997
2 55153  87.9182  29.9141 0002109 106.9215 253.2148 13.18685842133578
ONEWEB-0598             
1 55154U 23004Q   25259.25484885  .00000561  00000+0  15478-2 0  9994
2 55154  87.8774  75.6525 0001416 111.9519 248.1759 13.11415004129998
ONEWEB-0599             
1 55155U 23004R   25259.19907553  .00000073  00000+0  15410-3 0  9995
2 55155  87.9050  60.3672 0001527  94.7653 265.3653 13.17648790131400
ONEWEB-0614             
1 55156U 23004S   25259.24975791  .00000564  00000+0  15540-2 0  9999
2 55156  87.8774  75.6634 0002048  89.2465 270.8897 13.11418819129936
ONEWEB-0616             
1 55157U 23004T   25259.16531706 -.00000219  00000+0 -59679-3 0  9996
2 55157  87.9052  60.3648 0000989  62.3228 297.8004 13.17648351131613
ONEWEB-0617             
1 55158U 23004U   25259.00901122  .00000332  00000+0  90007-3 0  9997
2 55158  87.8775  75.6899 0001993  95.4001 264.7354 13.11419505129927
ONEWEB-0618             
1 55159U 23004V   25259.02798862  .00002537  00000+0  27694-3 0  9996
2 55159  86.9048 288.3688 0012528 220.8510 139.1778 14.87458912140911
ONEWEB-0619             
1 55160U 23004W   25259.19739549  .00000025  00000+0  31731-4 0  9991
2 55160  87.9047  60.3332 0001930  78.4967 281.6382 13.17647922131518
ONEWEB-0620             
1 55161U 23004X   25259.23280791 -.00000019  00000+0 -90768-4 0  9997
2 55161  87.8775  75.6663 0001724  97.7737 262.3587 13.11419306129924
ONEWEB-0621             
1 55162U 23004Y   25259.18364803  .00000453  00000+0  12428-2 0  9994
2 55162  87.8784  75.6361 0001876  85.1119 275.0223 13.11416292129898
ONEWEB-0622             
1 55163U 23004Z   25259.18872939  .00000207  00000+0  54849-3 0  9990
2 55163  87.8772  75.6546 0002468  97.5422 262.5987 13.11413379129883
ONEWEB-0623             
1 55164U 23004AA  25259.19233246  .00000094  00000+0  20819-3 0  9998
2 55164  87.9043  60.3894 0002464  89.2475 270.8939 13.17649377131501
ONEWEB-0624             
1 55165U 23004AB  25258.91750714 -.00000011  00000+0 -65129-4 0  9997
2 55165  87.8893  45.1343 0001837  90.7196 269.4143 13.12915602132081
ONEWEB-0625             
1 55166U 23004AC  25259.18220423  .00000088  00000+0  19328-3 0  9998
2 55166  87.9042  60.3880 0001602  89.7747 270.3568 13.17648766131499
ONEWEB-0626             
1 55167U 23004AD  25259.17207858 -.00000084  00000+0 -25011-3 0  9999
2 55167  87.9044  60.3888 0001613 110.8280 249.3024 13.17646817131498
ONEWEB-0627             
1 55168U 23004AE  25259.16027824 -.00000005  00000+0 -47129-4 0  9990
2 55168  87.9044  60.3925 0002324  93.1868 266.9529 13.17649637131494
ONEWEB-0628             
1 55169U 23004AF  25259.10273059  .00000285  00000+0  75697-3 0  9996
2 55169  87.8907  45.1007 0002352  88.9063 271.2335 13.12442489132085
ONEWEB-0629             
1 55170U 23004AG  25259.21174752  .00000093  00000+0  20519-3 0  9990
2 55170  87.9050  60.3767 0001845  82.2307 277.9034 13.17648878131503
ONEWEB-0631             
1 55171U 23004AH  25259.11108261  .00000017  00000+0  11368-4 0  9991
2 55171  87.9193  29.8538 0002051 113.8715 246.2633 13.18683787133552
